#aV2016  2 21  0  0  0.00000000     288 DD+AD WGS84 FIT  NGA
## 1885      0.00000000   300.00000000 57439 0.0000000000000
+   30     1  2  3  5  6  7  8  9 10 11 12 13 14 15 16 17 18
+         19 20 21 22 23 24 25 26 27 28 29 30 31  0  0  0  0
+          0  0  0  0  0  0  0  0  0  0  0  0  0  0  0  0  0
+          0  0  0  0  0  0  0  0  0  0  0  0  0  0  0  0  0
+          0  0  0  0  0  0  0  0  0  0  0  0  0  0  0  0  0
++         2  2  2  2  2  2  2  2  2  2  2  2  2  2  2  2  2
++         2  2  2  2  2  2  2  2  2  2  2  2  2  0  0  0  0
++         0  0  0  0  0  0  0  0  0  0  0  0  0  0  0  0  0
++         0  0  0  0  0  0  0  0  0  0  0  0  0  0  0  0  0
++         0  0  0  0  0  0  0  0  0  0  0  0  0  0  0  0  0
%c cc cc ccc ccc cccc cccc cccc cccc ccccc ccccc ccccc ccccc
%c cc cc ccc ccc cccc cccc cccc cccc ccccc ccccc ccccc ccccc
%f  0.0000000  0.000000000  0.00000000000  0.000000000000000
%f  0.0000000  0.000000000  0.00000000000  0.000000000000000
%i    0    0    0    0      0      0      0      0         0
%i    0    0    0    0      0      0      0      0         0
/*      NGA, ST. LOUIS,MO.                                  
/*   EPHEMERIS COMPUTED FROM 2 DAYS OF DATA                 
/*   EPOCHA v2.4 SMOOTHER                                   
/*   G1762 IERS2010 SATAF SATAPC                            
*  2016  2 21 17 10  0.00000000
P  1 -15667.014643    -21.036855  21401.241714     12.355848                    
V  1  -8262.731269 -26028.614540  -5838.736581      0.010245                    
P  2  14253.520831  21057.099066  -7951.687389    599.516556                    
V  2   1075.798068  10916.041419  28872.666458     -0.000951                    
P  3 -20817.803391   9316.143694  13624.354948    -27.395740                    
V  3   9707.732630 -14487.829235  24725.942625     -0.046495                    
P  5  12262.875559   9587.707403 -21593.709231   -144.049222                    
V  5 -17751.950869  20744.862842   -678.720035      0.033788                    
P  6   5579.641464  25599.426030   4384.249108    149.070855                    
V  6  -4322.266535  -4386.082753  31171.977400      0.059676                    
P  7  -8377.701320  16485.642235 -18783.389163    468.620706                    
V  7  -8765.463094 -22657.398041 -16249.240866     -0.016757                    
P  8 -25913.639154  -5749.276458  -1145.596968    -24.739613                    
V  8   2014.393326  -2436.752570 -31721.544468     -0.014450                    
P  9 -16857.810974   9798.039820 -18058.920284     75.299641                    
V  9 -22193.715801  -5902.249104  17522.463965      0.076516                    
P 10   7620.391202 -22146.525574  12484.371915     40.338283                    
V 10  12180.294459 -10432.221695 -26013.028834     -0.054358                    
P 11 -20173.953525  -3850.512609  16319.890058   -633.377332                    
V 11 -11693.618801 -18854.052225 -18237.784706     -0.017616                    
P 12  19995.572786  -5154.902034  16461.562883    369.355586                    
V 12 -13679.415667  16189.064313  21745.805050      0.016498                    
P 13  21789.635327  12781.696932  -8189.685662   -186.794105                    
V 13 -10454.328824   -858.523698 -29737.347647     -0.024831                    
P 14   -315.195719 -15706.374971  21684.388884      1.738925                    
V 14  26029.404215   6850.380214   5255.947098     -0.022325                    
P 15  26561.971431   1836.386096   2453.427918   -298.278246                    
V 15   2741.960645   3857.063763 -30651.405420     -0.018193                    
P 16 -10622.875906 -10012.405601 -22279.283506    -37.968708                    
V 16  19927.049963 -19652.418567   -295.240629      0.030621                    
P 17   -876.825014  15208.361098  22098.856197   -201.029315                    
V 17 -26469.864379  -6325.809022   3164.097790     -0.005492                    
P 18  15418.489252 -21376.595144   2223.815813    485.904568                    
V 18   4615.040723    886.059128 -30951.593640      0.040261                    
P 19   9179.227473  16037.864837  18707.018057   -524.933222                    
V 19 -23755.817234  -5449.150525  16539.651807     -0.000994                    
P 20  20090.666139  -6670.424498 -16231.657866    394.375188                    
V 20 -10163.048068  17865.131767 -20060.396601      0.026034                    
P 21   5129.404646 -19928.834149 -15897.835941   -511.531226                    
V 21  10105.117690  19458.216583 -20487.938560     -0.018287                    
P 22 -10539.348121 -12435.616881  21206.013118    393.540761                    
V 22  17257.385685 -20163.930175  -3445.550192     -0.060574                    
P 23 -24921.025846   2016.821459  -9409.120163   -161.158014                    
V 23 -11343.168115  -4936.060548  28023.421617     -0.018460                    
P 24  16684.263182   3183.565072  20412.282290    -12.757688                    
V 24   8046.115270  24765.684481 -10222.771525     -0.006490                    
P 25  19928.367409 -16077.472610   6561.413759   -121.059502                    
V 25  -3851.216133   7925.199240  30805.055882     -0.067619                    
P 26  -2147.188296 -18134.324108 -19269.913012   -263.713939                    
V 26  16999.822318 -17675.855449  14778.413851     -0.154610                    
P 27 -21208.946158 -11772.130919 -11017.410234     64.977385                    
V 27  14031.848813    593.636653 -27548.127541      0.036126                    
P 28  -9467.509623  21424.398530  13103.519741    504.018822                    
V 28 -12080.888950   9948.242720 -26320.879666      0.027191                    
P 29  19666.194155  -6557.246054 -16560.100361    654.657230                    
V 29  20007.387118   6711.281028  21121.117801      0.006810                    
P 30  -1880.676629  23962.669454 -11216.192848     98.935352                    
V 30  -6247.539439 -13111.347465 -27062.225277      0.042087                    
P 31  -6155.086842 -25538.950489   2289.891513    281.647963                    
V 31   3441.504550   1878.587553  32076.028242     -0.017037                    
EOF
